{
  "norad_id": 48315,
  "name": "STARLINK-2506",
  "history": [
    {
      "epoch": "2026-03-28T21:58:27.173856Z",
      "apogee_km": 548.1601145184477,
      "perigee_km": 546.1895862845349,
      "latitude_deg": 6.239676577083264e-05,
      "longitude_deg": -150.63096260504764,
      "height_km": 548.1982755515162,
      "semi_major_axis_km": 6925.311850401491,
      "eccentricity": 0.00014227,
      "inclination_deg": 53.0549,
      "raan_deg": 5.3114,
      "arg_perigee_deg": 98.5242,
      "mean_anomaly_deg": 261.5909,
      "mean_motion_rev_day": 15.06411977
    },
    {
      "epoch": "2026-03-29T01:09:31.837824Z",
      "apogee_km": 548.1697232703673,
      "perigee_km": 546.1586158107339,
      "latitude_deg": 6.939351611446871e-05,
      "longitude_deg": 160.87252135855434,
      "height_km": 548.2397194464413,
      "semi_major_axis_km": 6925.30116954055,
      "eccentricity": 0.0001452,
      "inclination_deg": 53.0551,
      "raan_deg": 4.7151,
      "arg_perigee_deg": 101.366,
      "mean_anomaly_deg": 258.7493,
      "mean_motion_rev_day": 15.06415462
    }
  ]
}